GLOBALSTAR M035 [-]     
1 25851U 99037A   23329.18071663 -.00000054  00000+0  35416-3 0  9991
2 25851  51.9951 246.1161 0013796 133.6399  16.2728 11.04527736 33271
GLOBALSTAR M032 [-]     
1 25852U 99037B   23329.53430269 -.00000067  00000+0 -23537-4 0  9999
2 25852  51.9930 109.8280 0007209 287.1548  72.8462 11.19045861 71016
GLOBALSTAR M051 [-]     
1 25853U 99037C   23329.34459340 -.00000058  00000+0  33391-3 0  9997
2 25853  51.9816 335.5518 0001470 279.4202  80.6443 11.42192715 67273
GLOBALSTAR M030 [-]     
1 25854U 99037D   23328.98927399 -.00000090  00000+0 -31000-3 0  9993
2 25854  51.9848 178.7665 0005728  96.8499 263.2970 11.55083971 84155
GLOBALSTAR M048 [-]     
1 25872U 99041A   23329.19786684 -.00000061  00000+0  24129-3 0  9993
2 25872  51.9365 248.8958 0012597 281.3060 228.4163 11.33841383 60325
GLOBALSTAR M026 [-]     
1 25873U 99041B   23329.58530359  .00000028  00000+0  33784-2 0  9991
2 25873  52.0048   9.1789 0001475  37.8955 133.4084 11.06829550 85412
GLOBALSTAR M043 [-]     
1 25874U 99041C   23329.28253522 -.00000064  00000+0  13601-3 0  9991
2 25874  51.9419 333.6266 0013451  60.5950  30.3394 11.25675781 58698
GLOBALSTAR M028 [-]     
1 25875U 99041D   23329.52474445 -.00000047  00000+0  34110-3 0  9997
2 25875  51.9621  91.6381 0062725 274.1250  85.2444 12.50545231118908
